NORAD_CAT_ID,OBJECT_NAME,OBJECT_TYPE,EPOCH,MEAN_MOTION,ECCENTRICITY,INCLINATION,RA_OF_ASC_NODE,ARG_OF_PERICENTER,MEAN_ANOMALY,BSTAR,MEAN_MOTION_DOT,MEAN_MOTION_DDOT,TLE_LINE0,TLE_LINE1,TLE_LINE2,SEMIMAJOR_AXIS,PERIOD,APOGEE,PERIGEE,DECAYED
54093.0,STARLINK-5213,PAYLOAD,2024-04-21 13:19:42,15.0882002,0.0001342,53.2168,178.537,81.7135,278.4009,0.00020791,3.021e-05,0.0,0 STARLINK-5213,1 54093U 22136AU  24112.55535296  .00003021  00000-0  20791-3 0  9993,2 54093  53.2168 178.5370 0001342  81.7135 278.4009 15.08820020 83258,6917.941,95.439,540.735,538.878,0.0
54093.0,STARLINK-5213,PAYLOAD,2024-04-21 14:55:05,15.08818436,0.0001472,53.2171,178.2374,83.9438,276.1722,0.0002037,2.954e-05,0.0,0 STARLINK-5213,1 54093U 22136AU  24112.62159402  .00002954  00000-0  20370-3 0  9999,2 54093  53.2171 178.2374 0001472  83.9438 276.1722 15.08818436 83735,6917.946,95.439,540.83,538.793,0.0
54093.0,STARLINK-5213,PAYLOAD,2024-04-22 09:59:43,15.08847934,0.0001693,53.2164,174.6724,69.8294,290.288,0.0010218,0.00016015,0.0,0 STARLINK-5213,1 54093U 22136AU  24113.41647302  .00016015  00000-0  10218-2 0  9990,2 54093  53.2164 174.6724 0001693  69.8294 290.2880 15.08847934 83854,6917.856,95.437,540.892,538.55,0.0
54093.0,STARLINK-5213,PAYLOAD,2024-04-22 13:10:28,15.08883885,0.0001581,53.2166,174.0734,62.5394,297.5758,0.0018967,0.00030063,0.0,0 STARLINK-5213,1 54093U 22136AU  24113.54894578  .00030063  00000-0  18967-2 0  9991,2 54093  53.2166 174.0734 0001581  62.5394 297.5758 15.08883885 83879,6917.746,95.435,540.705,538.518,0.0
54093.0,STARLINK-5213,PAYLOAD,2024-04-23 11:25:52,15.08865202,0.0001406,53.2158,169.911,77.9446,282.1704,0.0006704,0.00010405,0.0,0 STARLINK-5213,1 54093U 22136AU  24114.47629964  .00010405  00000-0  67040-3 0  9994,2 54093  53.2158 169.9110 0001406  77.9446 282.1704 15.08865202 84016,6917.803,95.436,540.641,538.696,0.0
54093.0,STARLINK-5213,PAYLOAD,2024-04-24 03:19:43,15.08850228,0.0001375,53.2166,166.9405,96.978,263.1369,0.00093652,0.00014652,0.0,0 STARLINK-5213,1 54093U 22136AU  24115.13869917  .00014652  00000-0  93652-3 0  9998,2 54093  53.2166 166.9405 0001375  96.9780 263.1369 15.08850228 84115,6917.849,95.437,540.665,538.763,0.0
54093.0,STARLINK-5213,PAYLOAD,2024-04-24 09:41:16,15.08854776,0.000185,53.2155,165.7531,64.9125,295.2059,0.00035454,5.361e-05,0.0,0 STARLINK-5213,1 54093U 22136AU  24115.40365801  .00005361  00000-0  35454-3 0  9994,2 54093  53.2155 165.7531 0001850  64.9125 295.2059 15.08854776 83681,6917.835,95.437,540.98,538.42,0.0
54093.0,STARLINK-5213,PAYLOAD,2024-04-25 09:32:03,15.08843183,0.0001618,53.2159,161.2938,101.6856,258.4318,3.5193e-05,2.72e-06,0.0,0 STARLINK-5213,1 54093U 22136AU  24116.39725832  .00000272  00000-0  35193-4 0  9994,2 54093  53.2159 161.2938 0001618 101.6856 258.4318 15.08843183 84308,6917.871,95.437,540.855,538.616,0.0
54093.0,STARLINK-5213,PAYLOAD,2024-04-26 09:22:50,15.08841608,0.0001517,53.215,156.8272,87.201,272.9155,-3.9271e-06,-3.51e-06,0.0,0 STARLINK-5213,1 54093U 22136AU  24117.39086177 -.00000351  00000-0 -39271-5 0  9999,2 54093  53.2150 156.8272 0001517  87.2010 272.9155 15.08841608 84455,6917.875,95.437,540.79,538.691,0.0
54093.0,STARLINK-5213,PAYLOAD,2024-04-27 10:49:00,15.08847611,0.0001504,53.2155,152.0703,85.5704,274.546,0.00029126,4.351e-05,0.0,0 STARLINK-5213,1 54093U 22136AU  24118.45070118  .00004351  00000-0  29126-3 0  9993,2 54093  53.2155 152.0703 0001504  85.5704 274.5460 15.08847611 84619,6917.857,95.437,540.763,538.682,0.0
54093.0,STARLINK-5213,PAYLOAD,2024-04-27 18:45:56,15.08836513,0.0001727,53.2147,150.5832,87.091,273.0279,0.0001008,1.316e-05,0.0,0 STARLINK-5213,1 54093U 22136AU  24118.78190674  .00001316  00000-0  10080-3 0  9996,2 54093  53.2147 150.5832 0001727  87.0910 273.0279 15.08836513 84665,6917.891,95.438,540.951,538.561,0.0
54093.0,STARLINK-5213,PAYLOAD,2024-04-28 07:29:01,15.08833884,0.0001625,53.2159,148.2055,98.4896,261.628,-3.6829e-05,-8.74e-06,0.0,0 STARLINK-5213,1 54093U 22136AU  24119.31182845 -.00000874  00000-0 -36829-4 0  9997,2 54093  53.2159 148.2055 0001625  98.4896 261.6280 15.08833884 84275,6917.899,95.438,540.888,538.64,0.0
54093.0,STARLINK-5213,PAYLOAD,2024-04-28 18:36:43,15.08836096,0.0001723,53.215,146.1231,91.6823,268.4367,-2.5086e-05,-6.87e-06,0.0,0 STARLINK-5213,1 54093U 22136AU  24119.77550823 -.00000687  00000-0 -25086-4 0  9997,2 54093  53.2150 146.1231 0001723  91.6823 268.4367 15.08836096 84340,6917.892,95.438,540.949,538.565,0.0
54093.0,STARLINK-5213,PAYLOAD,2024-04-29 02:33:39,15.08840108,0.0001597,53.2161,144.6373,102.8918,257.2253,-1.6139e-05,-5.45e-06,0.0,0 STARLINK-5213,1 54093U 22136AU  24120.10670639 -.00000545  00000-0 -16139-4 0  9996,2 54093  53.2161 144.6373 0001597 102.8918 257.2253 15.08840108 84867,6917.88,95.438,540.85,538.64,0.0
54093.0,STARLINK-5213,PAYLOAD,2024-04-29 10:30:35,15.0884225,0.0001588,53.2174,143.1505,98.8618,261.2554,2.8619e-05,1.68e-06,0.0,0 STARLINK-5213,1 54093U 22136AU  24120.43790836  .00000168  00000-0  28619-4 0  9999,2 54093  53.2174 143.1505 0001588  98.8618 261.2554 15.08842250 84446,6917.874,95.437,540.837,538.64,0.0
54093.0,STARLINK-5213,PAYLOAD,2024-04-29 18:27:30,15.08848576,0.0001626,53.2175,141.6637,97.701,262.4167,-4.2629e-05,-9.67e-06,0.0,0 STARLINK-5213,1 54093U 22136AU  24120.76910490 -.00000967  00000-0 -42629-4 0  9991,2 54093  53.2175 141.6637 0001626  97.7010 262.4167 15.08848576 84498,6917.854,95.437,540.844,538.594,0.0
54093.0,STARLINK-5213,PAYLOAD,2024-04-30 05:35:12,15.08839338,0.0001466,53.2166,139.5812,99.3735,260.7422,0.00017693,2.529e-05,0.0,0 STARLINK-5213,1 54093U 22136AU  24121.23278716  .00002529  00000-0  17693-3 0  9998,2 54093  53.2166 139.5812 0001466  99.3735 260.7422 15.08839338 85035,6917.882,95.438,540.762,538.733,0.0
54093.0,STARLINK-5213,PAYLOAD,2024-04-30 08:45:58,15.08842157,0.0001403,53.2161,138.9861,99.2141,260.901,0.00017082,2.432e-05,0.0,0 STARLINK-5213,1 54093U 22136AU  24121.36526588  .00002432  00000-0  17082-3 0  9990,2 54093  53.2161 138.9861 0001403  99.2141 260.9010 15.08842157 84585,6917.874,95.437,540.709,538.768,0.0
54093.0,STARLINK-5213,PAYLOAD,2024-04-30 18:18:17,15.08841662,0.0001435,53.2161,137.2008,93.6341,266.4815,0.00011688,1.573e-05,0.0,0 STARLINK-5213,1 54093U 22136AU  24121.76270788  .00001573  00000-0  11688-3 0  9993,2 54093  53.2161 137.2008 0001435  93.6341 266.4815 15.08841662 84646,6917.875,95.437,540.733,538.748,0.0
54093.0,STARLINK-5213,PAYLOAD,2024-05-01 05:25:59,15.08841863,0.0001434,53.2161,135.1191,94.3022,265.8134,0.0001102,1.466e-05,0.0,0 STARLINK-5213,1 54093U 22136AU  24122.22638792  .00001466  00000-0  11020-3 0  9999,2 54093  53.2161 135.1191 0001434  94.3022 265.8134 15.08841863 84717,6917.875,95.437,540.732,538.748,0.0
54093.0,STARLINK-5213,PAYLOAD,2024-05-01 18:09:04,15.08845872,0.0001407,53.2159,132.7403,93.961,266.1543,8.3759e-05,1.046e-05,0.0,0 STARLINK-5213,1 54093U 22136AU  24122.75630384  .00001046  00000-0  83759-4 0  9999,2 54093  53.2159 132.7403 0001407  93.9610 266.1543 15.08845872 85264,6917.862,95.437,540.701,538.754,0.0
54093.0,STARLINK-5213,PAYLOAD,2024-05-02 10:02:55,15.0884818,0.0001356,53.2153,129.7668,93.6358,266.4789,7.402e-05,8.91e-06,0.0,0 STARLINK-5213,1 54093U 22136AU  24123.41869976  .00000891  00000-0  74020-4 0  9992,2 54093  53.2153 129.7668 0001356  93.6358 266.4789 15.08848180 84894,6917.855,95.437,540.658,538.782,0.0
54093.0,STARLINK-5213,PAYLOAD,2024-05-02 21:10:38,15.0883751,0.0001375,53.2151,127.6836,97.0429,263.072,2.9784e-05,1.86e-06,0.0,0 STARLINK-5213,1 54093U 22136AU  24123.88238613  .00000186  00000-0  29784-4 0  9995,2 54093  53.2151 127.6836 0001375  97.0429 263.0720 15.08837510 85438,6917.888,95.438,540.704,538.802,0.0
54093.0,STARLINK-5213,PAYLOAD,2024-05-03 09:53:43,15.088374,0.0001364,53.2154,125.3043,98.3707,261.744,2.4272e-06,-2.49e-06,0.0,0 STARLINK-5213,1 54093U 22136AU  24124.41230714 -.00000249  00000-0  24272-5 0  9998,2 54093  53.2154 125.3043 0001364  98.3707 261.7440 15.08837400 85046,6917.888,95.438,540.697,538.81,0.0
54093.0,STARLINK-5213,PAYLOAD,2024-05-04 04:58:21,15.08837782,0.0001362,53.2154,121.7356,98.7544,261.3602,-1.1075e-05,-4.64e-06,0.0,0 STARLINK-5213,1 54093U 22136AU  24125.20718809 -.00000464  00000-0 -11075-4 0  9998,2 54093  53.2154 121.7356 0001362  98.7544 261.3602 15.08837782 85638,6917.887,95.438,540.694,538.81,0.0
54093.0,STARLINK-5213,PAYLOAD,2024-05-05 09:35:17,15.08842704,0.0001355,53.2162,116.3846,87.4155,272.6992,0.00012094,1.638e-05,0.0,0 STARLINK-5213,1 54093U 22136AU  24126.39950358  .00001638  00000-0  12094-3 0  9999,2 54093  53.2162 116.3846 0001355  87.4155 272.6992 15.08842704 85813,6917.872,95.437,540.674,538.8,0.0
54093.0,STARLINK-5213,PAYLOAD,2024-05-06 04:39:55,15.08836119,0.0001358,53.2163,112.8153,86.2186,273.8962,3.9435e-05,3.4e-06,0.0,0 STARLINK-5213,1 54093U 22136AU  24127.19439200  .00000340  00000-0  39435-4 0  9994,2 54093  53.2163 112.8153 0001358  86.2186 273.8962 15.08836119 85936,6917.892,95.438,540.697,538.818,0.0
54093.0,STARLINK-5213,PAYLOAD,2024-05-06 07:50:41,15.08838624,0.0001335,53.2162,112.2218,87.8296,272.2849,5.6746e-05,6.15e-06,0.0,0 STARLINK-5213,1 54093U 22136AU  24127.32686993  .00000615  00000-0  56746-4 0  9991,2 54093  53.2162 112.2218 0001335  87.8296 272.2849 15.08838624 85485,6917.885,95.438,540.673,538.826,0.0
54093.0,STARLINK-5213,PAYLOAD,2024-05-06 15:47:37,15.08840767,0.0001366,53.2165,110.7353,88.6039,271.5109,6.0344e-05,6.73e-06,0.0,0 STARLINK-5213,1 54093U 22136AU  24127.65806904  .00000673  00000-0  60344-4 0  9996,2 54093  53.2165 110.7353 0001366  88.6039 271.5109 15.08840767 85537,6917.878,95.438,540.688,538.798,0.0
54093.0,STARLINK-5213,PAYLOAD,2024-05-07 07:41:28,15.08845998,0.0001386,53.2167,107.7616,90.2576,269.8574,4.1747e-05,3.77e-06,0.0,0 STARLINK-5213,1 54093U 22136AU  24128.32046554  .00000377  00000-0  41747-4 0  9995,2 54093  53.2167 107.7616 0001386  90.2576 269.8574 15.08845998 86105,6917.862,95.437,540.686,538.768,0.0
